{"fetched_at":"2026-03-29T16:36:15Z","count":15609,"tles":[{"name":"S-NET B","line1":"1 43187U 18014H   26087.69692942  .00006451  00000+0  34072-3 0  9991","line2":"2 43187  97.5425 352.9968 0007453 298.9946  61.0539 15.15836786446564","category":"Other"}]}