{
  "norad_id": 43187,
  "name": "S-NET B",
  "history": [
    {
      "epoch": "2026-03-28T16:43:34.701888",
      "apogee_km": 523.5793363898956,
      "perigee_km": 513.2992997301953,
      "latitude_deg": -22.097514682281854,
      "longitude_deg": 5.60522431996651,
      "semi_major_axis_km": 6896.576318060045,
      "eccentricity": 0.0007453,
      "inclination_deg": 97.5425,
      "raan_deg": 352.9968,
      "arg_perigee_deg": 298.9946,
      "mean_anomaly_deg": 61.0539,
      "mean_motion_rev_day": 15.15836786
    }
  ]
}